[{"OBJECT_NAME":"STARLINK-33873","OBJECT_ID":"2025-083X","EPOCH":"2025-07-29T15:36:14.255136","MEAN_MOTION":15.27596299,"ECCENTRICITY":0.0001617,"INCLINATION":43.0026,"RA_OF_ASC_NODE":185.0013,"ARG_OF_PERICENTER":269.8352,"MEAN_ANOMALY":90.2315,"EPHEMERIS_TYPE":0,"CLASSIFICATION_TYPE":"U","NORAD_CAT_ID":63655,"ELEMENT_SET_NO":999,"REV_AT_EPOCH":1598,"BSTAR":0.00062172,"MEAN_MOTION_DOT":0.00016894,"MEAN_MOTION_DDOT":0},{"OBJECT_NAME":"STARLINK-33772","OBJECT_ID":"2025-083Y","EPOCH":"2025-07-28T15:39:50.652576","MEAN_MOTION":15.2758936,"ECCENTRICITY":0.0001008,"INCLINATION":42.9987,"RA_OF_ASC_NODE":190.4164,"ARG_OF_PERICENTER":329.431,"MEAN_ANOMALY":30.6483,"EPHEMERIS_TYPE":0,"CLASSIFICATION_TYPE":"U","NORAD_CAT_ID":63656,"ELEMENT_SET_NO":999,"REV_AT_EPOCH":1583,"BSTAR":0.00040834,"MEAN_MOTION_DOT":0.00010995,"MEAN_MOTION_DDOT":0},{"OBJECT_NAME":"STARLINK-33789","OBJECT_ID":"2025-083Z","EPOCH":"2025-07-29T15:01:05.321856","MEAN_MOTION":15.275852,"ECCENTRICITY":0.0001012,"INCLINATION":43.0009,"RA_OF_ASC_NODE":184.8174,"ARG_OF_PERICENTER":263.4879,"MEAN_ANOMALY":96.5857,"EPHEMERIS_TYPE":0,"CLASSIFICATION_TYPE":"U","NORAD_CAT_ID":63657,"ELEMENT_SET_NO":999,"REV_AT_EPOCH":1598,"BSTAR":0.0011466,"MEAN_MOTION_DOT":0.00031429,"MEAN_MOTION_DDOT":0},{"OBJECT_NAME":"STARLINK-33822","OBJECT_ID":"2025-083AA","EPOCH":"2025-07-29T15:32:31.360416","MEAN_MOTION":15.27596156,"ECCENTRICITY":0.0003594,"INCLINATION":43.0072,"RA_OF_ASC_NODE":184.98,"ARG_OF_PERICENTER":270.6279,"MEAN_ANOMALY":89.4161,"EPHEMERIS_TYPE":0,"CLASSIFICATION_TYPE":"U","NORAD_CAT_ID":63658,"ELEMENT_SET_NO":999,"REV_AT_EPOCH":1598,"BSTAR":0.00044513,"MEAN_MOTION_DOT":0.00012014,"MEAN_MOTION_DDOT":0},{"OBJECT_NAME":"STARLINK-33771","OBJECT_ID":"2025-083AB","EPOCH":"2025-07-29T15:00:24.564384","MEAN_MOTION":15.27586066,"ECCENTRICITY":0.0001131,"INCLINATION":42.999,"RA_OF_ASC_NODE":188.351,"ARG_OF_PERICENTER":267.2378,"MEAN_ANOMALY":92.8344,"EPHEMERIS_TYPE":0,"CLASSIFICATION_TYPE":"U","NORAD_CAT_ID":63659,"ELEMENT_SET_NO":999,"REV_AT_EPOCH":1594,"BSTAR":0.0011203,"MEAN_MOTION_DOT":0.000307,"MEAN_MOTION_DDOT":0},{"OBJECT_NAME":"STARLINK-33810","OBJECT_ID":"2025-083AC","EPOCH":"2025-07-29T14:48:08.187552","MEAN_MOTION":15.27594981,"ECCENTRICITY":0.0001209,"INCLINATION":42.9997,"RA_OF_ASC_NODE":184.7485,"ARG_OF_PERICENTER":270.7409,"MEAN_ANOMALY":89.3304,"EPHEMERIS_TYPE":0,"CLASSIFICATION_TYPE":"U","NORAD_CAT_ID":63660,"ELEMENT_SET_NO":999,"REV_AT_EPOCH":1598,"BSTAR":0.00099192,"MEAN_MOTION_DOT":0.00027146,"MEAN_MOTION_DDOT":0},{"OBJECT_NAME":"STARLINK-33823","OBJECT_ID":"2025-083AD","EPOCH":"2025-07-29T23:17:46.512672","MEAN_MOTION":15.27596057,"ECCENTRICITY":4.78e-5,"INCLINATION":43.0013,"RA_OF_ASC_NODE":183.1084,"ARG_OF_PERICENTER":283.2582,"MEAN_ANOMALY":76.8217,"EPHEMERIS_TYPE":0,"CLASSIFICATION_TYPE":"U","NORAD_CAT_ID":63661,"ELEMENT_SET_NO":999,"REV_AT_EPOCH":1603,"BSTAR":0.00066752,"MEAN_MOTION_DOT":0.00018161,"MEAN_MOTION_DDOT":0},{"OBJECT_NAME":"STARLINK-11651 [DTC]","OBJECT_ID":"2025-085A","EPOCH":"2025-07-29T15:01:51.074976","MEAN_MOTION":15.7088502,"ECCENTRICITY":5.17e-5,"INCLINATION":42.9998,"RA_OF_ASC_NODE":182.6248,"ARG_OF_PERICENTER":14.8157,"MEAN_ANOMALY":345.2726,"EPHEMERIS_TYPE":0,"CLASSIFICATION_TYPE":"U","NORAD_CAT_ID":63664,"ELEMENT_SET_NO":999,"REV_AT_EPOCH":1517,"BSTAR":0.0015402,"MEAN_MOTION_DOT":0.00202453,"MEAN_MOTION_DDOT":0},{"OBJECT_NAME":"STARLINK-11672 [DTC]","OBJECT_ID":"2025-085B","EPOCH":"2025-07-29T14:54:12.514752","MEAN_MOTION":15.70888037,"ECCENTRICITY":0.0001042,"INCLINATION":42.9996,"RA_OF_ASC_NODE":182.581,"ARG_OF_PERICENTER":34.1639,"MEAN_ANOMALY":325.9296,"EPHEMERIS_TYPE":0,"CLASSIFICATION_TYPE":"U","NORAD_CAT_ID":63665,"ELEMENT_SET_NO":999,"REV_AT_EPOCH":1577,"BSTAR":0.0015805,"MEAN_MOTION_DOT":0.00207924,"MEAN_MOTION_DDOT":0},{"OBJECT_NAME":"STARLINK-11664 [DTC]","OBJECT_ID":"2025-085C","EPOCH":"2025-07-29T14:48:03.165120","MEAN_MOTION":15.70887172,"ECCENTRICITY":6.78e-5,"INCLINATION":42.9993,"RA_OF_ASC_NODE":183.4406,"ARG_OF_PERICENTER":301.5402,"MEAN_ANOMALY":58.5399,"EPHEMERIS_TYPE":0,"CLASSIFICATION_TYPE":"U","NORAD_CAT_ID":63666,"ELEMENT_SET_NO":999,"REV_AT_EPOCH":1516,"BSTAR":0.0013898,"MEAN_MOTION_DOT":0.00182205,"MEAN_MOTION_DDOT":0},{"OBJECT_NAME":"STARLINK-11666 [DTC]","OBJECT_ID":"2025-085D","EPOCH":"2025-07-29T08:40:29.532288","MEAN_MOTION":15.70908651,"ECCENTRICITY":0.0002388,"INCLINATION":43.0004,"RA_OF_ASC_NODE":184.9692,"ARG_OF_PERICENTER":266.6091,"MEAN_ANOMALY":93.4504,"EPHEMERIS_TYPE":0,"CLASSIFICATION_TYPE":"U","NORAD_CAT_ID":63667,"ELEMENT_SET_NO":999,"REV_AT_EPOCH":1502,"BSTAR":0.0013864,"MEAN_MOTION_DOT":0.00181924,"MEAN_MOTION_DDOT":0},{"OBJECT_NAME":"STARLINK-11663 [DTC]","OBJECT_ID":"2025-085E","EPOCH":"2025-07-29T07:01:17.304096","MEAN_MOTION":15.70917289,"ECCENTRICITY":0.0002776,"INCLINATION":43.0031,"RA_OF_ASC_NODE":185.3085,"ARG_OF_PERICENTER":276.0377,"MEAN_ANOMALY":84.0174,"EPHEMERIS_TYPE":0,"CLASSIFICATION_TYPE":"U","NORAD_CAT_ID":63668,"ELEMENT_SET_NO":999,"REV_AT_EPOCH":1511,"BSTAR":0.0018444,"MEAN_MOTION_DOT":0.00244098,"MEAN_MOTION_DDOT":0},{"OBJECT_NAME":"STARLINK-11595 [DTC]","OBJECT_ID":"2025-085F","EPOCH":"2025-07-29T19:06:07.588224","MEAN_MOTION":15.70930021,"ECCENTRICITY":2.27e-5,"INCLINATION":42.9956,"RA_OF_ASC_NODE":182.1994,"ARG_OF_PERICENTER":215.2032,"MEAN_ANOMALY":144.882,"EPHEMERIS_TYPE":0,"CLASSIFICATION_TYPE":"U","NORAD_CAT_ID":63669,"ELEMENT_SET_NO":999,"REV_AT_EPOCH":1583,"BSTAR":0.0014505,"MEAN_MOTION_DOT":0.00190728,"MEAN_MOTION_DDOT":0},{"OBJECT_NAME":"STARLINK-11599 [DTC]","OBJECT_ID":"2025-085G","EPOCH":"2025-07-29T09:49:06.767904","MEAN_MOTION":15.7091156,"ECCENTRICITY":0.0002699,"INCLINATION":43.0011,"RA_OF_ASC_NODE":184.457,"ARG_OF_PERICENTER":271.4869,"MEAN_ANOMALY":88.5689,"EPHEMERIS_TYPE":0,"CLASSIFICATION_TYPE":"U","NORAD_CAT_ID":63670,"ELEMENT_SET_NO":999,"REV_AT_EPOCH":1512,"BSTAR":0.0013813,"MEAN_MOTION_DOT":0.00181266,"MEAN_MOTION_DDOT":0},{"OBJECT_NAME":"STARLINK-11603 [DTC]","OBJECT_ID":"2025-085H","EPOCH":"2025-07-29T05:06:47.589984","MEAN_MOTION":15.70883516,"ECCENTRICITY":0.0001471,"INCLINATION":42.9993,"RA_OF_ASC_NODE":185.562,"ARG_OF_PERICENTER":265.4391,"MEAN_ANOMALY":94.6309,"EPHEMERIS_TYPE":0,"CLASSIFICATION_TYPE":"U","NORAD_CAT_ID":63671,"ELEMENT_SET_NO":999,"REV_AT_EPOCH":1509,"BSTAR":0.0013529,"MEAN_MOTION_DOT":0.00177221,"MEAN_MOTION_DDOT":0},{"OBJECT_NAME":"STARLINK-11644 [DTC]","OBJECT_ID":"2025-085J","EPOCH":"2025-07-29T09:33:49.669920","MEAN_MOTION":15.70879836,"ECCENTRICITY":0.0001236,"INCLINATION":43.0001,"RA_OF_ASC_NODE":184.3679,"ARG_OF_PERICENTER":267.9718,"MEAN_ANOMALY":92.1008,"EPHEMERIS_TYPE":0,"CLASSIFICATION_TYPE":"U","NORAD_CAT_ID":63672,"ELEMENT_SET_NO":999,"REV_AT_EPOCH":1512,"BSTAR":0.0020144,"MEAN_MOTION_DOT":0.00266948,"MEAN_MOTION_DDOT":0},{"OBJECT_NAME":"STARLINK-11634 [DTC]","OBJECT_ID":"2025-085K","EPOCH":"2025-07-29T23:10:13.234944","MEAN_MOTION":15.70896458,"ECCENTRICITY":7.41e-5,"INCLINATION":42.9985,"RA_OF_ASC_NODE":180.8791,"ARG_OF_PERICENTER":268.5642,"MEAN_ANOMALY":91.514,"EPHEMERIS_TYPE":0,"CLASSIFICATION_TYPE":"U","NORAD_CAT_ID":63673,"ELEMENT_SET_NO":999,"REV_AT_EPOCH":1521,"BSTAR":0.0012758,"MEAN_MOTION_DOT":0.00166979,"MEAN_MOTION_DDOT":0},{"OBJECT_NAME":"STARLINK-11656 [DTC]","OBJECT_ID":"2025-085L","EPOCH":"2025-07-29T23:02:34.519200","MEAN_MOTION":15.70866356,"ECCENTRICITY":0.0001489,"INCLINATION":42.9992,"RA_OF_ASC_NODE":180.8344,"ARG_OF_PERICENTER":284.2237,"MEAN_ANOMALY":75.8465,"EPHEMERIS_TYPE":0,"CLASSIFICATION_TYPE":"U","NORAD_CAT_ID":63674,"ELEMENT_SET_NO":999,"REV_AT_EPOCH":1521,"BSTAR":0.0015745,"MEAN_MOTION_DOT":0.00206919,"MEAN_MOTION_DDOT":0},{"OBJECT_NAME":"STARLINK-11655 [DTC]","OBJECT_ID":"2025-085M","EPOCH":"2025-07-29T22:54:55.659168","MEAN_MOTION":15.71073695,"ECCENTRICITY":0.0002328,"INCLINATION":42.9987,"RA_OF_ASC_NODE":180.7909,"ARG_OF_PERICENTER":254.7444,"MEAN_ANOMALY":105.3167,"EPHEMERIS_TYPE":0,"CLASSIFICATION_TYPE":"U","NORAD_CAT_ID":63675,"ELEMENT_SET_NO":999,"REV_AT_EPOCH":1521,"BSTAR":0.0019254,"MEAN_MOTION_DOT":0.00256912,"MEAN_MOTION_DDOT":0},{"OBJECT_NAME":"STARLINK-11661 [DTC]","OBJECT_ID":"2025-085N","EPOCH":"2025-07-29T22:47:17.314944","MEAN_MOTION":15.71014788,"ECCENTRICITY":0.0002943,"INCLINATION":42.9998,"RA_OF_ASC_NODE":180.749,"ARG_OF_PERICENTER":306.093,"MEAN_ANOMALY":53.9665,"EPHEMERIS_TYPE":0,"CLASSIFICATION_TYPE":"U","NORAD_CAT_ID":63676,"ELEMENT_SET_NO":999,"REV_AT_EPOCH":1586,"BSTAR":0.0013904,"MEAN_MOTION_DOT":0.00183307,"MEAN_MOTION_DDOT":0},{"OBJECT_NAME":"STARLINK-33816","OBJECT_ID":"2025-085P","EPOCH":"2025-07-29T16:36:20.578176","MEAN_MOTION":15.27610312,"ECCENTRICITY":0.0002271,"INCLINATION":42.9984,"RA_OF_ASC_NODE":210.4309,"ARG_OF_PERICENTER":282.4829,"MEAN_ANOMALY":77.5768,"EPHEMERIS_TYPE":0,"CLASSIFICATION_TYPE":"U","NORAD_CAT_ID":63677,"ELEMENT_SET_NO":999,"REV_AT_EPOCH":1486,"BSTAR":0.00073527,"MEAN_MOTION_DOT":0.00020045,"MEAN_MOTION_DDOT":0},{"OBJECT_NAME":"STARLINK-33861","OBJECT_ID":"2025-085Q","EPOCH":"2025-07-29T16:43:44.897088","MEAN_MOTION":15.27584508,"ECCENTRICITY":0.0001079,"INCLINATION":42.9997,"RA_OF_ASC_NODE":210.4715,"ARG_OF_PERICENTER":269.9744,"MEAN_ANOMALY":90.0984,"EPHEMERIS_TYPE":0,"CLASSIFICATION_TYPE":"U","NORAD_CAT_ID":63678,"ELEMENT_SET_NO":999,"REV_AT_EPOCH":1475,"BSTAR":0.0010444,"MEAN_MOTION_DOT":0.00028593,"MEAN_MOTION_DDOT":0},{"OBJECT_NAME":"STARLINK-33850","OBJECT_ID":"2025-085R","EPOCH":"2025-07-29T09:59:21.669792","MEAN_MOTION":15.27592897,"ECCENTRICITY":0.0001725,"INCLINATION":42.9997,"RA_OF_ASC_NODE":211.8026,"ARG_OF_PERICENTER":273.7094,"MEAN_ANOMALY":86.3561,"EPHEMERIS_TYPE":0,"CLASSIFICATION_TYPE":"U","NORAD_CAT_ID":63679,"ELEMENT_SET_NO":999,"REV_AT_EPOCH":1471,"BSTAR":0.0009133,"MEAN_MOTION_DOT":0.00024965,"MEAN_MOTION_DDOT":0}]
